GLOBALSTAR M045         
1 25676U 99019A   26095.28205675 -.00000141  00000+0 -41860-3 0  9990
2 25676  51.9965 192.7257 0000576 137.7680 257.0329 12.27073445229259
GLOBALSTAR M019         
1 25677U 99019B   26095.11182014 -.00000015  00000+0  78543-3 0  9991
2 25677  51.9909 344.1240 0001287 152.4210  14.0317 12.13882826220598
GLOBALSTAR M044         
1 25678U 99019C   26095.11138213 -.00000032  00000+0  72575-3 0  9992
2 25678  51.9995 332.0043 0005522 240.0824 287.3435 11.90264756206086
GLOBALSTAR M042         
1 25679U 99019D   26095.31984491 -.00000052  00000+0  38172-3 0  9999
2 25679  52.0023 306.2464 0002888 165.5414   5.1963 12.22095603220974
GLOBALSTAR M025         
1 25770U 99031A   26094.55966307 -.00000072  00000+0 -13327-3 0  9994
2 25770  51.9805 204.2822 0001915 245.5277 127.3996 11.22560686514430
GLOBALSTAR M049         
1 25771U 99031B   26095.10370318 -.00000107  00000+0 -14390-2 0  9997
2 25771  51.9863 252.4538 0003337 141.6591 218.4443 11.12123876149909
GLOBALSTAR M047         
1 25772U 99031C   26095.09372553 -.00000063  00000+0  18825-3 0  9997
2 25772  51.9821 221.5568 0016411  47.1052 313.1129 11.31933068504163
GLOBALSTAR M052         
1 25773U 99031D   26095.22662280 -.00000049  00000+0  55765-3 0  9990
2 25773  51.9910 356.7440 0002106 307.4321 225.9230 11.15063797511087
GLOBALSTAR M035         
1 25851U 99037A   26095.25689339 -.00000018  00000+0  17324-2 0  9994
2 25851  51.9922 123.6162 0013578  96.7186 346.4252 11.04541494128531
GLOBALSTAR M032         
1 25852U 99037B   26095.24006103 -.00000080  00000+0 -43470-3 0  9998
2 25852  51.9957 288.7078 0012007 299.8073  60.1532 11.19069279167486
GLOBALSTAR M051         
1 25853U 99037C   26095.17225096 -.00000073  00000+0 -28780-4 0  9995
2 25853  51.9804  56.5090 0000273 106.3453 253.7388 11.42201260165750
GLOBALSTAR M030         
1 25854U 99037D   26095.31062670  .00000012  00000+0  18360-2 0  9991
2 25854  51.9868 203.7051 0003844 191.6392 168.4336 11.55108004183807
GLOBALSTAR M048         
1 25872U 99041A   26095.11107542 -.00000053  00000+0  46855-3 0  9999
2 25872  51.9413   2.9778 0013196 333.0438 167.0788 11.33862956158090
GLOBALSTAR M026         
1 25873U 99041B   26095.14904649 -.00000030  00000+0  12639-2 0  9993
2 25873  51.9997 238.7374 0001821  53.5976 118.5876 11.06842956180814
GLOBALSTAR M043         
1 25874U 99041C   26095.04258719 -.00000030  00000+0  11484-2 0  9990
2 25874  51.9370 122.4100 0013434  90.5444 290.3325 11.25699575155740
GLOBALSTAR M028         
1 25875U 99041D   26095.19410606 -.00000114  00000+0 -87359-4 0  9992
2 25875  51.9645  42.3370 0063565 346.0756  13.8352 12.50598327226716
