[{"OBJECT_NAME":"GLOBALSTAR M045","OBJECT_ID":"1999-019A","EPOCH":"2026-04-05T06:46:09.703200","MEAN_MOTION":12.27073445,"ECCENTRICITY":5.768e-5,"INCLINATION":51.9965,"RA_OF_ASC_NODE":192.7257,"ARG_OF_PERICENTER":137.768,"MEAN_ANOMALY":257.0329,"EPHEMERIS_TYPE":0,"CLASSIFICATION_TYPE":"U","NORAD_CAT_ID":25676,"ELEMENT_SET_NO":999,"REV_AT_EPOCH":22925,"BSTAR":-0.00041860081,"MEAN_MOTION_DOT":-1.41e-6,"MEAN_MOTION_DDOT":0},{"OBJECT_NAME":"GLOBALSTAR M019","OBJECT_ID":"1999-019B","EPOCH":"2026-04-05T02:41:01.260096","MEAN_MOTION":12.13882826,"ECCENTRICITY":0.00012873,"INCLINATION":51.9909,"RA_OF_ASC_NODE":344.124,"ARG_OF_PERICENTER":152.421,"MEAN_ANOMALY":14.0317,"EPHEMERIS_TYPE":0,"CLASSIFICATION_TYPE":"U","NORAD_CAT_ID":25677,"ELEMENT_SET_NO":999,"REV_AT_EPOCH":22059,"BSTAR":0.00078543016,"MEAN_MOTION_DOT":-1.5e-7,"MEAN_MOTION_DDOT":0},{"OBJECT_NAME":"GLOBALSTAR M044","OBJECT_ID":"1999-019C","EPOCH":"2026-04-05T02:40:23.416032","MEAN_MOTION":11.90264756,"ECCENTRICITY":0.00055224,"INCLINATION":51.9995,"RA_OF_ASC_NODE":332.0043,"ARG_OF_PERICENTER":240.0824,"MEAN_ANOMALY":287.3435,"EPHEMERIS_TYPE":0,"CLASSIFICATION_TYPE":"U","NORAD_CAT_ID":25678,"ELEMENT_SET_NO":999,"REV_AT_EPOCH":20608,"BSTAR":0.00072574751,"MEAN_MOTION_DOT":-3.2e-7,"MEAN_MOTION_DDOT":0},{"OBJECT_NAME":"GLOBALSTAR M042","OBJECT_ID":"1999-019D","EPOCH":"2026-04-05T07:40:34.600224","MEAN_MOTION":12.22095603,"ECCENTRICITY":0.00028881,"INCLINATION":52.0023,"RA_OF_ASC_NODE":306.2464,"ARG_OF_PERICENTER":165.5414,"MEAN_ANOMALY":5.1963,"EPHEMERIS_TYPE":0,"CLASSIFICATION_TYPE":"U","NORAD_CAT_ID":25679,"ELEMENT_SET_NO":999,"REV_AT_EPOCH":22097,"BSTAR":0.00038171944,"MEAN_MOTION_DOT":-5.2e-7,"MEAN_MOTION_DDOT":0},{"OBJECT_NAME":"GLOBALSTAR M025","OBJECT_ID":"1999-031A","EPOCH":"2026-04-04T13:25:54.889248","MEAN_MOTION":11.22560686,"ECCENTRICITY":0.00019153,"INCLINATION":51.9805,"RA_OF_ASC_NODE":204.2822,"ARG_OF_PERICENTER":245.5277,"MEAN_ANOMALY":127.3996,"EPHEMERIS_TYPE":0,"CLASSIFICATION_TYPE":"U","NORAD_CAT_ID":25770,"ELEMENT_SET_NO":999,"REV_AT_EPOCH":51443,"BSTAR":-0.0001332667,"MEAN_MOTION_DOT":-7.2e-7,"MEAN_MOTION_DDOT":0},{"OBJECT_NAME":"GLOBALSTAR M049","OBJECT_ID":"1999-031B","EPOCH":"2026-04-05T02:29:19.954752","MEAN_MOTION":11.12123876,"ECCENTRICITY":0.00033375,"INCLINATION":51.9863,"RA_OF_ASC_NODE":252.4538,"ARG_OF_PERICENTER":141.6591,"MEAN_ANOMALY":218.4443,"EPHEMERIS_TYPE":0,"CLASSIFICATION_TYPE":"U","NORAD_CAT_ID":25771,"ELEMENT_SET_NO":999,"REV_AT_EPOCH":14990,"BSTAR":-0.0014389501,"MEAN_MOTION_DOT":-1.07e-6,"MEAN_MOTION_DDOT":0},{"OBJECT_NAME":"GLOBALSTAR M047","OBJECT_ID":"1999-031C","EPOCH":"2026-04-05T02:14:57.885792","MEAN_MOTION":11.31933068,"ECCENTRICITY":0.00164113,"INCLINATION":51.9821,"RA_OF_ASC_NODE":221.5568,"ARG_OF_PERICENTER":47.1052,"MEAN_ANOMALY":313.1129,"EPHEMERIS_TYPE":0,"CLASSIFICATION_TYPE":"U","NORAD_CAT_ID":25772,"ELEMENT_SET_NO":999,"REV_AT_EPOCH":50416,"BSTAR":0.00018824559,"MEAN_MOTION_DOT":-6.3e-7,"MEAN_MOTION_DDOT":0},{"OBJECT_NAME":"GLOBALSTAR M052","OBJECT_ID":"1999-031D","EPOCH":"2026-04-05T05:26:20.209920","MEAN_MOTION":11.15063797,"ECCENTRICITY":0.00021069,"INCLINATION":51.991,"RA_OF_ASC_NODE":356.744,"ARG_OF_PERICENTER":307.4321,"MEAN_ANOMALY":225.923,"EPHEMERIS_TYPE":0,"CLASSIFICATION_TYPE":"U","NORAD_CAT_ID":25773,"ELEMENT_SET_NO":999,"REV_AT_EPOCH":51108,"BSTAR":0.00055765016,"MEAN_MOTION_DOT":-4.9e-7,"MEAN_MOTION_DDOT":0},{"OBJECT_NAME":"GLOBALSTAR M035","OBJECT_ID":"1999-037A","EPOCH":"2026-04-05T06:09:55.588896","MEAN_MOTION":11.04541494,"ECCENTRICITY":0.00135784,"INCLINATION":51.9922,"RA_OF_ASC_NODE":123.6162,"ARG_OF_PERICENTER":96.7186,"MEAN_ANOMALY":346.4252,"EPHEMERIS_TYPE":0,"CLASSIFICATION_TYPE":"U","NORAD_CAT_ID":25851,"ELEMENT_SET_NO":999,"REV_AT_EPOCH":12853,"BSTAR":0.0017323647,"MEAN_MOTION_DOT":-1.8e-7,"MEAN_MOTION_DDOT":0},{"OBJECT_NAME":"GLOBALSTAR M032","OBJECT_ID":"1999-037B","EPOCH":"2026-04-05T05:45:41.272992","MEAN_MOTION":11.19069279,"ECCENTRICITY":0.00120075,"INCLINATION":51.9957,"RA_OF_ASC_NODE":288.7078,"ARG_OF_PERICENTER":299.8073,"MEAN_ANOMALY":60.1532,"EPHEMERIS_TYPE":0,"CLASSIFICATION_TYPE":"U","NORAD_CAT_ID":25852,"ELEMENT_SET_NO":999,"REV_AT_EPOCH":16748,"BSTAR":-0.00043469716,"MEAN_MOTION_DOT":-8.0e-7,"MEAN_MOTION_DDOT":0},{"OBJECT_NAME":"GLOBALSTAR M051","OBJECT_ID":"1999-037C","EPOCH":"2026-04-05T04:08:02.482944","MEAN_MOTION":11.4220126,"ECCENTRICITY":2.735e-5,"INCLINATION":51.9804,"RA_OF_ASC_NODE":56.509,"ARG_OF_PERICENTER":106.3453,"MEAN_ANOMALY":253.7388,"EPHEMERIS_TYPE":0,"CLASSIFICATION_TYPE":"U","NORAD_CAT_ID":25853,"ELEMENT_SET_NO":999,"REV_AT_EPOCH":16575,"BSTAR":-2.8780155e-5,"MEAN_MOTION_DOT":-7.3e-7,"MEAN_MOTION_DDOT":0},{"OBJECT_NAME":"GLOBALSTAR M030","OBJECT_ID":"1999-037D","EPOCH":"2026-04-05T07:27:18.146880","MEAN_MOTION":11.55108004,"ECCENTRICITY":0.00038449,"INCLINATION":51.9868,"RA_OF_ASC_NODE":203.7051,"ARG_OF_PERICENTER":191.6392,"MEAN_ANOMALY":168.4336,"EPHEMERIS_TYPE":0,"CLASSIFICATION_TYPE":"U","NORAD_CAT_ID":25854,"ELEMENT_SET_NO":999,"REV_AT_EPOCH":18380,"BSTAR":0.0018360095,"MEAN_MOTION_DOT":1.2e-7,"MEAN_MOTION_DDOT":0},{"OBJECT_NAME":"GLOBALSTAR M048","OBJECT_ID":"1999-041A","EPOCH":"2026-04-05T02:39:56.916288","MEAN_MOTION":11.33862956,"ECCENTRICITY":0.00131963,"INCLINATION":51.9413,"RA_OF_ASC_NODE":2.9778,"ARG_OF_PERICENTER":333.0438,"MEAN_ANOMALY":167.0788,"EPHEMERIS_TYPE":0,"CLASSIFICATION_TYPE":"U","NORAD_CAT_ID":25872,"ELEMENT_SET_NO":999,"REV_AT_EPOCH":15809,"BSTAR":0.00046855428,"MEAN_MOTION_DOT":-5.3e-7,"MEAN_MOTION_DDOT":0},{"OBJECT_NAME":"GLOBALSTAR M026","OBJECT_ID":"1999-041B","EPOCH":"2026-04-05T03:34:37.616736","MEAN_MOTION":11.06842956,"ECCENTRICITY":0.00018219,"INCLINATION":51.9997,"RA_OF_ASC_NODE":238.7374,"ARG_OF_PERICENTER":53.5976,"MEAN_ANOMALY":118.5876,"EPHEMERIS_TYPE":0,"CLASSIFICATION_TYPE":"U","NORAD_CAT_ID":25873,"ELEMENT_SET_NO":999,"REV_AT_EPOCH":18081,"BSTAR":0.0012639073,"MEAN_MOTION_DOT":-3.0e-7,"MEAN_MOTION_DDOT":0},{"OBJECT_NAME":"GLOBALSTAR M043","OBJECT_ID":"1999-041C","EPOCH":"2026-04-05T01:01:19.533216","MEAN_MOTION":11.25699575,"ECCENTRICITY":0.00134341,"INCLINATION":51.937,"RA_OF_ASC_NODE":122.41,"ARG_OF_PERICENTER":90.5444,"MEAN_ANOMALY":290.3325,"EPHEMERIS_TYPE":0,"CLASSIFICATION_TYPE":"U","NORAD_CAT_ID":25874,"ELEMENT_SET_NO":999,"REV_AT_EPOCH":15574,"BSTAR":0.0011483649,"MEAN_MOTION_DOT":-3.0e-7,"MEAN_MOTION_DDOT":0},{"OBJECT_NAME":"GLOBALSTAR M028","OBJECT_ID":"1999-041D","EPOCH":"2026-04-05T04:39:30.763584","MEAN_MOTION":12.50598327,"ECCENTRICITY":0.00635658,"INCLINATION":51.9645,"RA_OF_ASC_NODE":42.337,"ARG_OF_PERICENTER":346.0756,"MEAN_ANOMALY":13.8352,"EPHEMERIS_TYPE":0,"CLASSIFICATION_TYPE":"U","NORAD_CAT_ID":25875,"ELEMENT_SET_NO":999,"REV_AT_EPOCH":22671,"BSTAR":-8.7359039e-5,"MEAN_MOTION_DOT":-1.14e-6,"MEAN_MOTION_DDOT":0}]
